CCSDS_OMM_VERS = 2.0
CREATION_DATE  = 
ORIGINATOR     = 

OBJECT_NAME    = STARLINK-36719
OBJECT_ID      = 2026-022A
CENTER_NAME    = EARTH
REF_FRAME      = TEME
TIME_SYSTEM    = UTC
MEAN_ELEMENT_THEORY = SGP/SGP4

EPOCH          = 2026-02-23T13:25:44.841792
MEAN_MOTION    = 15.75428928
ECCENTRICITY   = .0002063
INCLINATION    = 97.2832
RA_OF_ASC_NODE = 87.8264
ARG_OF_PERICENTER = 80.4239
MEAN_ANOMALY   = 279.7259

EPHEMERIS_TYPE = 0
CLASSIFICATION_TYPE = U
NORAD_CAT_ID   = 67648
ELEMENT_SET_NO = 999
REV_AT_EPOCH   = 332
BSTAR          = .32321E-2
MEAN_MOTION_DOT = .517662E-2
MEAN_MOTION_DDOT = 0

CCSDS_OMM_VERS = 2.0
CREATION_DATE  = 
ORIGINATOR     = 

OBJECT_NAME    = STARLINK-36342
OBJECT_ID      = 2026-022B
CENTER_NAME    = EARTH
REF_FRAME      = TEME
TIME_SYSTEM    = UTC
MEAN_ELEMENT_THEORY = SGP/SGP4

EPOCH          = 2026-02-23T19:30:40.131936
MEAN_MOTION    = 15.75217494
ECCENTRICITY   = .0001804
INCLINATION    = 97.2842
RA_OF_ASC_NODE = 88.0937
ARG_OF_PERICENTER = 74.1314
MEAN_ANOMALY   = 286.0150

EPHEMERIS_TYPE = 0
CLASSIFICATION_TYPE = U
NORAD_CAT_ID   = 67649
ELEMENT_SET_NO = 999
REV_AT_EPOCH   = 336
BSTAR          = .21165E-2
MEAN_MOTION_DOT = .328396E-2
MEAN_MOTION_DDOT = 0

CCSDS_OMM_VERS = 2.0
CREATION_DATE  = 
ORIGINATOR     = 

OBJECT_NAME    = STARLINK-36703
OBJECT_ID      = 2026-022C
CENTER_NAME    = EARTH
REF_FRAME      = TEME
TIME_SYSTEM    = UTC
MEAN_ELEMENT_THEORY = SGP/SGP4

EPOCH          = 2026-02-23T13:23:14.595648
MEAN_MOTION    = 15.75314341
ECCENTRICITY   = .0001707
INCLINATION    = 97.2838
RA_OF_ASC_NODE = 87.8287
ARG_OF_PERICENTER = 61.3330
MEAN_ANOMALY   = 298.8106

EPHEMERIS_TYPE = 0
CLASSIFICATION_TYPE = U
NORAD_CAT_ID   = 67650
ELEMENT_SET_NO = 999
REV_AT_EPOCH   = 332
BSTAR          = .27639E-2
MEAN_MOTION_DOT = .436239E-2
MEAN_MOTION_DDOT = 0

CCSDS_OMM_VERS = 2.0
CREATION_DATE  = 
ORIGINATOR     = 

OBJECT_NAME    = STARLINK-36696
OBJECT_ID      = 2026-022D
CENTER_NAME    = EARTH
REF_FRAME      = TEME
TIME_SYSTEM    = UTC
MEAN_ELEMENT_THEORY = SGP/SGP4

EPOCH          = 2026-02-23T19:26:35.886912
MEAN_MOTION    = 15.75299764
ECCENTRICITY   = .0000593
INCLINATION    = 97.2839
RA_OF_ASC_NODE = 88.0976
ARG_OF_PERICENTER = 347.4037
MEAN_ANOMALY   = 12.7214

EPHEMERIS_TYPE = 0
CLASSIFICATION_TYPE = U
NORAD_CAT_ID   = 67651
ELEMENT_SET_NO = 999
REV_AT_EPOCH   = 336
BSTAR          = .1879E-2
MEAN_MOTION_DOT = .291302E-2
MEAN_MOTION_DDOT = 0

CCSDS_OMM_VERS = 2.0
CREATION_DATE  = 
ORIGINATOR     = 

OBJECT_NAME    = STARLINK-36699
OBJECT_ID      = 2026-022E
CENTER_NAME    = EARTH
REF_FRAME      = TEME
TIME_SYSTEM    = UTC
MEAN_ELEMENT_THEORY = SGP/SGP4

EPOCH          = 2026-02-23T19:25:34.833216
MEAN_MOTION    = 15.75299174
ECCENTRICITY   = .0003299
INCLINATION    = 97.2839
RA_OF_ASC_NODE = 88.0986
ARG_OF_PERICENTER = 73.7450
MEAN_ANOMALY   = 286.4178

EPHEMERIS_TYPE = 0
CLASSIFICATION_TYPE = U
NORAD_CAT_ID   = 67652
ELEMENT_SET_NO = 999
REV_AT_EPOCH   = 336
BSTAR          = .19202E-2
MEAN_MOTION_DOT = .297937E-2
MEAN_MOTION_DDOT = 0

CCSDS_OMM_VERS = 2.0
CREATION_DATE  = 
ORIGINATOR     = 

OBJECT_NAME    = STARLINK-36694
OBJECT_ID      = 2026-022F
CENTER_NAME    = EARTH
REF_FRAME      = TEME
TIME_SYSTEM    = UTC
MEAN_ELEMENT_THEORY = SGP/SGP4

EPOCH          = 2026-02-23T13:16:36.714144
MEAN_MOTION    = 15.75230797
ECCENTRICITY   = .0000676
INCLINATION    = 97.2836
RA_OF_ASC_NODE = 87.8352
ARG_OF_PERICENTER = 2.2955
MEAN_ANOMALY   = 357.8313

EPHEMERIS_TYPE = 0
CLASSIFICATION_TYPE = U
NORAD_CAT_ID   = 67653
ELEMENT_SET_NO = 999
REV_AT_EPOCH   = 332
BSTAR          = .18165E-2
MEAN_MOTION_DOT = .280407E-2
MEAN_MOTION_DDOT = 0

CCSDS_OMM_VERS = 2.0
CREATION_DATE  = 
ORIGINATOR     = 

OBJECT_NAME    = STARLINK-36620
OBJECT_ID      = 2026-022G
CENTER_NAME    = EARTH
REF_FRAME      = TEME
TIME_SYSTEM    = UTC
MEAN_ELEMENT_THEORY = SGP/SGP4

EPOCH          = 2026-02-23T19:22:02.366976
MEAN_MOTION    = 15.75231485
ECCENTRICITY   = .0003244
INCLINATION    = 97.2838
RA_OF_ASC_NODE = 88.1012
ARG_OF_PERICENTER = 75.0967
MEAN_ANOMALY   = 285.0657

EPHEMERIS_TYPE = 0
CLASSIFICATION_TYPE = U
NORAD_CAT_ID   = 67654
ELEMENT_SET_NO = 999
REV_AT_EPOCH   = 336
BSTAR          = .15921E-2
MEAN_MOTION_DOT = .244746E-2
MEAN_MOTION_DDOT = 0

CCSDS_OMM_VERS = 2.0
CREATION_DATE  = 
ORIGINATOR     = 

OBJECT_NAME    = STARLINK-36720
OBJECT_ID      = 2026-022H
CENTER_NAME    = EARTH
REF_FRAME      = TEME
TIME_SYSTEM    = UTC
MEAN_ELEMENT_THEORY = SGP/SGP4

EPOCH          = 2026-02-23T13:13:33.812256
MEAN_MOTION    = 15.75241893
ECCENTRICITY   = .0000601
INCLINATION    = 97.2839
RA_OF_ASC_NODE = 87.8378
ARG_OF_PERICENTER = 34.6526
MEAN_ANOMALY   = 325.4778

EPHEMERIS_TYPE = 0
CLASSIFICATION_TYPE = U
NORAD_CAT_ID   = 67655
ELEMENT_SET_NO = 999
REV_AT_EPOCH   = 332
BSTAR          = .20959E-2
MEAN_MOTION_DOT = .325442E-2
MEAN_MOTION_DDOT = 0

CCSDS_OMM_VERS = 2.0
CREATION_DATE  = 
ORIGINATOR     = 

OBJECT_NAME    = STARLINK-36688
OBJECT_ID      = 2026-022J
CENTER_NAME    = EARTH
REF_FRAME      = TEME
TIME_SYSTEM    = UTC
MEAN_ELEMENT_THEORY = SGP/SGP4

EPOCH          = 2026-02-23T13:12:32.303232
MEAN_MOTION    = 15.75282267
ECCENTRICITY   = .0001176
INCLINATION    = 97.2840
RA_OF_ASC_NODE = 87.8379
ARG_OF_PERICENTER = 274.6341
MEAN_ANOMALY   = 85.4790

EPHEMERIS_TYPE = 0
CLASSIFICATION_TYPE = U
NORAD_CAT_ID   = 67656
ELEMENT_SET_NO = 999
REV_AT_EPOCH   = 332
BSTAR          = .17405E-2
MEAN_MOTION_DOT = .268895E-2
MEAN_MOTION_DDOT = 0

CCSDS_OMM_VERS = 2.0
CREATION_DATE  = 
ORIGINATOR     = 

OBJECT_NAME    = STARLINK-36706
OBJECT_ID      = 2026-022K
CENTER_NAME    = EARTH
REF_FRAME      = TEME
TIME_SYSTEM    = UTC
MEAN_ELEMENT_THEORY = SGP/SGP4

EPOCH          = 2026-02-23T13:10:30.940608
MEAN_MOTION    = 15.75203638
ECCENTRICITY   = .0000701
INCLINATION    = 97.2840
RA_OF_ASC_NODE = 87.8390
ARG_OF_PERICENTER = 102.2905
MEAN_ANOMALY   = 257.8438

EPHEMERIS_TYPE = 0
CLASSIFICATION_TYPE = U
NORAD_CAT_ID   = 67657
ELEMENT_SET_NO = 999
REV_AT_EPOCH   = 332
BSTAR          = .15631E-2
MEAN_MOTION_DOT = .239832E-2
MEAN_MOTION_DDOT = 0

CCSDS_OMM_VERS = 2.0
CREATION_DATE  = 
ORIGINATOR     = 

OBJECT_NAME    = STARLINK-36701
OBJECT_ID      = 2026-022L
CENTER_NAME    = EARTH
REF_FRAME      = TEME
TIME_SYSTEM    = UTC
MEAN_ELEMENT_THEORY = SGP/SGP4

EPOCH          = 2026-02-23T13:08:58.974720
MEAN_MOTION    = 15.75267177
ECCENTRICITY   = .0001203
INCLINATION    = 97.2839
RA_OF_ASC_NODE = 87.8413
ARG_OF_PERICENTER = 292.4562
MEAN_ANOMALY   = 67.6576

EPHEMERIS_TYPE = 0
CLASSIFICATION_TYPE = U
NORAD_CAT_ID   = 67658
ELEMENT_SET_NO = 999
REV_AT_EPOCH   = 332
BSTAR          = .16279E-2
MEAN_MOTION_DOT = .250789E-2
MEAN_MOTION_DDOT = 0

CCSDS_OMM_VERS = 2.0
CREATION_DATE  = 
ORIGINATOR     = 

OBJECT_NAME    = STARLINK-36642
OBJECT_ID      = 2026-022M
CENTER_NAME    = EARTH
REF_FRAME      = TEME
TIME_SYSTEM    = UTC
MEAN_ELEMENT_THEORY = SGP/SGP4

EPOCH          = 2026-02-23T13:07:28.093152
MEAN_MOTION    = 15.75220461
ECCENTRICITY   = .0001068
INCLINATION    = 97.2840
RA_OF_ASC_NODE = 87.8434
ARG_OF_PERICENTER = 71.6320
MEAN_ANOMALY   = 288.5061

EPHEMERIS_TYPE = 0
CLASSIFICATION_TYPE = U
NORAD_CAT_ID   = 67659
ELEMENT_SET_NO = 999
REV_AT_EPOCH   = 332
BSTAR          = .17794E-2
MEAN_MOTION_DOT = .274341E-2
MEAN_MOTION_DDOT = 0

